[{"OBJECT_NAME":"STARLINK-2482","OBJECT_ID":"2021-027AZ","EPOCH":"2026-03-10T00:00:02.999808","MEAN_MOTION":15.1095975,"ECCENTRICITY":0.00018591,"INCLINATION":53.0699,"RA_OF_ASC_NODE":150.1994,"ARG_OF_PERICENTER":81.545,"MEAN_ANOMALY":87.9317,"EPHEMERIS_TYPE":0,"CLASSIFICATION_TYPE":"U","NORAD_CAT_ID":48139,"ELEMENT_SET_NO":999,"REV_AT_EPOCH":574,"BSTAR":0.0054693957,"MEAN_MOTION_DOT":0.00093207,"MEAN_MOTION_DDOT":0},{"OBJECT_NAME":"ICEYE-X62","OBJECT_ID":"2025-276CT","EPOCH":"2026-03-09T22:00:01.999584","MEAN_MOTION":15.13749858,"ECCENTRICITY":0.00024067,"INCLINATION":97.4268,"RA_OF_ASC_NODE":144.1131,"ARG_OF_PERICENTER":24.3407,"MEAN_ANOMALY":42.0964,"EPHEMERIS_TYPE":0,"CLASSIFICATION_TYPE":"U","NORAD_CAT_ID":66755,"ELEMENT_SET_NO":999,"REV_AT_EPOCH":582,"BSTAR":-0.0014397534,"MEAN_MOTION_DOT":-0.00025905,"MEAN_MOTION_DDOT":0}]
